2026-05-17 07:00:16 | DEBUG | strands_evaluation.instrumentation.agent_plugins | Model response #4 [role=assistant block=1 tool_use] peek_multiple({"files": [{"s3_uri": "s3://sana-kramabench/datagov/kramabench-astronomy-easy-6/files/space-track/58214_storm.csv"}, {"s3_uri": "s3://sana-kramabench/datagov/kramabench-astronomy-easy-6/files/space-track/58214_quiet.csv"}], "max_rows": 20}) [toolUseId=call_kJ3oLhwnfJKstARBoKZwlsVb]
2026-05-17 07:00:16 | INFO | strands_evaluation.instrumentation.agent_plugins | Executing: peek_multiple({"files": [{"s3_uri": "s3://sana-kramabench/datagov/kramabench-astronomy-easy-6/files/space-track/58214_storm.csv"}, {"s3_uri": "s3://sana-kramabench/datagov/kramabench-astronomy-easy-6/files/space-track/58214_quiet.csv"}], "max_rows": 20})
2026-05-17 07:00:17 | DEBUG | strands_evaluation.instrumentation.agent_plugins | Tool result: {"results": [{"dataset_id": "kramabench-astronomy-easy-6", "file_path": "files/space-track/58214_storm.csv", "s3_uri": "s3://sana-kramabench/datagov/kramabench-astronomy-easy-6/files/space-track/58214_storm.csv", "size_bytes": 8029, "family": "csv", "preview_text": "CCSDS_OMM_VERS,COMMENT,CREATION_DATE,ORIGINATOR,OBJECT_NAME,OBJECT_ID,CENTER_NAME,REF_FRAME,TIME_SYSTEM,MEAN_ELEMENT_THEORY,EPOCH,MEAN_MOTION,ECCENTRICITY,INCLINATION,RA_OF_ASC_NODE,ARG_OF_PERICENTER,MEAN_ANOMALY,EPHEMERIS_TYPE,CLASSIFICATION_TYPE,NORAD_CAT_ID,ELEMENT_SET_NO,REV_AT_EPOCH,BSTAR,MEAN_MOTION_DOT,MEAN_MOTION_DDOT,SEMIMAJOR_AXIS,PERIOD,APOAPSIS,PERIAPSIS,OBJECT_TYPE,RCS_SIZE,COUNTRY_CODE,LAUNCH_DATE,SITE,DECAY_DATE,FILE,GP_ID,TLE_LINE0,TLE_LINE1,TLE_LINE2\n\"2.0\",\"GENERATED VIA SPACE-TRACK.ORG API\",\"2024-05-10T17:44:02\",\"18 SPCS\",\"STARLINK-30805\",\"2023-170J\",\"EARTH\",\"TEME\",\"UTC\",\"SGP4\",\"2024-05-10T13:03:59.806080\",\"15.02537535\",\"0.00028990\",\"43.0080\",\"226.3847\",\"278.1214\",\"81.9299\",\"0\",\"U\",\"58214\",\"999\",\"2977\",\"-0.00026920000000\",\"-0.00003839\",\"0.0000000000000\",\"6937.212\",\"95.838\",\"561.088\",\"557.066\",\"PAYLOAD\",\"LARGE\",\"US\",\"2023-11-03\",\"AFETR\",\"\",\"4312738\",\"256888979\",\"0 STARLINK-30805\",\"1 58214U 23170J   24131.54444220 -.00003839  00000-0 -26920-3 0  9996\",\"2 58214  43.0080 226.3847 0002899 278.1214  81.9299 15.02537535 29771\"\n\"2.0\",\"GENERATED VIA SPACE-TRACK.ORG API\",\"2024-05-11T02:49:57\",\"18 SPCS\",\"STARLINK-30805\",\"2023-170J\",\"EARTH\",\"TEME\",\"UTC\",\"SGP4\",\"2024-05-10T16:15:27.229536\",\"15.02540313\",\"0.00014720\",\"43.0037\",\"225.6614\",\"276.8779\",\"83.1896\",\"0\",\"U\",\"58214\",\"999\",\"2979\",\"-0.00009585500000\",\"-0.00001498\",\"0.0000000000000\",\"6937.203\",\"95.838\",\"560.089\",\"558.047\",\"PAYLOAD\",\"LARGE\",\"US\",\"2023-11-03\",\"AFETR\",\"\",\"4313042\",\"256923769\",\"0 STARLINK-30805\",\"1 58214U 23170J   24131.67739849 -.00001498  00000-0 -95855-4 0  9997\",\"2 58214...
2026-05-17 07:00:17 | INFO | strands_evaluation.instrumentation.agent_plugins | 
--- Turn 5 (elapsed: 13.5s) ---
2026-05-17 07:00:19 | DEBUG | strands_evaluation.instrumentation.agent_plugins | Model response #5 [stop_reason=tool_use]
2026-05-17 07:00:19 | DEBUG | strands_evaluation.instrumentation.agent_plugins | Model response #5 [role=assistant block=1 tool_use] download({"files": [{"s3_uri": "s3://sana-kramabench/datagov/kramabench-astronomy-easy-6/files/space-track/58214_storm.csv"}, {"s3_uri": "s3://sana-kramabench/datagov/kramabench-astronomy-easy-6/files/space-track/58214_quiet.csv"}]}) [toolUseId=call_Uy8gMdgcVtLsl3sxK3JF6xuW]
2026-05-17 07:00:19 | INFO | strands_evaluation.instrumentation.agent_plugins | Executing: download({"files": [{"s3_uri": "s3://sana-kramabench/datagov/kramabench-astronomy-easy-6/files/space-track/58214_storm.csv"}, {"s3_uri": "s3://sana-kramabench/datagov/kramabench-astronomy-easy-6/files/space-track/58214_quiet.csv"}]})
2026-05-17 07:00:31 | DEBUG | strands_evaluation.instrumentation.agent_plugins | Tool result: {"downloaded": [{"local_path": "/home/ec2-user/eval_eqa/exploratory-qa-eval/.sandbox_isolated/task_1683686_1779001203749/kramabench-astronomy-easy-6/files/space-track/58214_storm.csv", "file_path": "files/space-track/58214_storm.csv", "dataset_id": "kramabench-astronomy-easy-6", "s3_uri": "s3://sana-kramabench/datagov/kramabench-astronomy-easy-6/files/space-track/58214_storm.csv", "size": 8029, "status": "downloaded"}, {"local_path": "/home/ec2-user/eval_eqa/exploratory-qa-eval/.sandbox_isolated/task_1683686_1779001203749/kramabench-astronomy-easy-6/files/space-track/58214_quiet.csv", "file_path": "files/space-track/58214_quiet.csv", "dataset_id": "kramabench-astronomy-easy-6", "s3_uri": "s3://sana-kramabench/datagov/kramabench-astronomy-easy-6/files/space-track/58214_quiet.csv", "size": 5115, "status": "downloaded"}], "download_count": 2, "sandbox_dir": "/home/ec2-user/eval_eqa/exploratory-qa-eval/.sandbox_isolated/task_1683686_1779001203749", "path_map": {"s3://sana-kramabench/datagov/kramabench-astronomy-easy-6/files/space-track/58214_storm.csv": "/home/ec2-user/eval_eqa/exploratory-qa-eval/.sandbox_isolated/task_1683686_1779001203749/kramabench-astronomy-easy-6/files/space-track/58214_storm.csv", "kramabench-astronomy-easy-6/files/space-track/58214_storm.csv": "/home/ec2-user/eval_eqa/exploratory-qa-eval/.sandbox_isolated/task_1683686_1779001203749/kramabench-astronomy-easy-6/files/space-track/58214_storm.csv", "kramabench-astronomy-easy-6:files/space-track/58214_storm.csv": "/home/ec2-user/eval_eqa/exploratory-qa-eval/.sandbox_isolated/task_1683686_1779001203749/kramabench-astronomy-easy-6/files/space-track/58214_storm.csv", "s3://sana-kramabench/datagov/kramabench-astronomy-easy-6/files/space-track/58214_quiet.csv": "/home/ec2-user/eval_eqa/exploratory-qa-eval/.sandbox_isolated/task_1683686_1779001203749/kramabench-astronomy-easy-6/files/space-track/58214_quiet.csv", "kramabench-astronomy-easy-6/files/space-track/58214_quiet.csv": "/home/ec2-user/eval_eqa/expl...
2026-05-17 07:00:31 | INFO | strands_evaluation.instrumentation.agent_plugins | 
--- Turn 6 (elapsed: 27.9s) ---
2026-05-17 07:00:43 | DEBUG | strands_evaluation.instrumentation.agent_plugins | Model response #6 [stop_reason=tool_use]
2026-05-17 07:00:43 | DEBUG | strands_evaluation.instrumentation.agent_plugins | Model response #6 [role=assistant block=1 tool_use] execute_ideal({"code": "# intent: compute semi-major axis from mean motion and average decay rates (km/day) between endpoints for quiet (May1-4) and storm (May10-13) using downloaded CSVs\nimport pandas as pd\nimport numpy as np\nfrom datetime import datetime\n\n# constants\nmu = 398600.4418  # km^3/s^2\nR_earth = 6371.0  # km\n\n# load files using the provided path map via DOWNLOAD_MANIFEST_PATH\nimport json, os\nmanifest_path = os.environ.get('DOWNLOAD_MANIFEST_PATH', '')\nwith open(manifest_path) as f:\n    manifest = json.load(f)\npath_map = manifest['path_map']\nstorm_path = path_map['s3://sana-kramabench/datagov/kramabench-astronomy-easy-6/files/space-track/58214_storm.csv']\nquiet_path = path_map['s3://sana-kramabench/datagov/kramabench-astronomy-easy-6/files/space-track/58214_quiet.csv']\n\n# read\nstorm = pd.read_csv(storm_path)\nquiet = pd.read_csv(quiet_path)\n\n# parse epoch times (EPOCH column looks ISO-like)\nfor df in [storm, quiet]:\n    # some EPOCH entries include fractional seconds and timezone; parse with pandas\n    df['epoch_dt'] = pd.to_datetime(df['EPOCH'])\n    # mean motion column name\n    df['mean_motion'] = pd.to_numeric(df['MEAN_MOTION'], errors='coerce')\n    # compute semi-major axis from mean motion: n (rev/day) -> n_rad_s = n*2*pi/(24*3600)\n    # but mean motion in TLE is revs per day; convert to rad/s and use a = (mu/(n^2))^(1/3), where n in rad/s\n    n_rev_day = df['mean_motion']\n    n_rad_s = n_rev_day * 2 * np.pi / 86400.0\n    df['a_km'] = (mu / (n_rad_s**2))**(1/3)\n\n# For each period, select endpoints covering required ranges. Quiet: May 1-4 2024 inclusive. Storm: May 10-13 inclusive.\n\ndef period_rate(df, start_date, end_date):\n    mask = (df['epoch_dt'].dt.date >= pd.to_datetime(start_date).date()) & (df['epoch_dt'].dt.date <= pd.to_datetime(end_date).date())\n    sel = df.loc[mask].sort_values('epoch_dt')\n    if len(sel) < 2:\n        return np.nan, None\n    first = sel.iloc[0]\n    last = sel.iloc[-1]\n    dt_days = (last['epoch_dt'] - first['epoch_dt']).total_seconds()/86400.0\n    da_km = last['a_km'] - first['a_km']\n    rate_km_per_day = da_km / dt_days\n    return rate_km_per_day, (first['epoch_dt'], last['epoch_dt'], first['a_km'], last['a_km'], dt_days)\n\nquiet_rate, quiet_info = period_rate(quiet, '2024-05-01', '2024-05-04')\nstorm_rate, storm_info = period_rate(storm, '2024-05-10', '2024-05-13')\n\nprint('quiet_rate_km_per_day', quiet_rate)\nprint('quiet_info', quiet_info)\nprint('storm_rate_km_per_day', storm_rate)\nprint('storm_info', storm_info)\n\n# Round the rates to reasonable precision\nprint('rounded', round(quiet_rate, 6), round(storm_rate, 6))\n\n# final values to return\nquiet_rate, storm_rate\n", "intent": "Compute semi-major axis from TLE mean motion and average km/day decay rates between the first and last epoch within each specified date range."}) [toolUseId=call_kEzT9UdGIz42iYSdr68irwtj]
